STARLINK-30130          
1 56697U 23067K   26067.97846141 -.00000248  00000+0  45743-6 0  9995
2 56697  43.0019 274.8532 0002189 263.0588  97.0015 15.26744788155336
TEVEL2-9                
1 63237U 25052AD  26068.70229538  .00018694  00000+0  67240-3 0  9992
2 63237  97.4057 324.3929 0007990 124.2475 235.9522 15.28633834 54816
